{
  "norad_id": 53556,
  "name": "STARLINK-4505",
  "history": [
    {
      "epoch": "2026-03-28T22:15:38.193696",
      "apogee_km": 540.7151868037963,
      "perigee_km": 538.756045278933,
      "latitude_deg": 48.20744253427712,
      "longitude_deg": -15.35756255988963,
      "semi_major_axis_km": 6917.872616041364,
      "eccentricity": 0.0001416,
      "inclination_deg": 53.2185,
      "raan_deg": 337.7584,
      "arg_perigee_deg": 94.7811,
      "mean_anomaly_deg": 265.3342,
      "mean_motion_rev_day": 15.08842543
    },
    {
      "epoch": "2026-03-28T23:51:01.268352",
      "apogee_km": 540.7116489287782,
      "perigee_km": 538.7538917837664,
      "latitude_deg": 43.23934514130283,
      "longitude_deg": -8.998590719886124,
      "semi_major_axis_km": 6917.869770356272,
      "eccentricity": 0.0001415,
      "inclination_deg": 53.2185,
      "raan_deg": 337.4612,
      "arg_perigee_deg": 95.5581,
      "mean_anomaly_deg": 264.5572,
      "mean_motion_rev_day": 15.08843474
    }
  ]
}